[{"OBJECT_NAME":"OBJECT V","OBJECT_ID":"2023-091V","EPOCH":"2026-03-09T23:35:36.322656","MEAN_MOTION":15.35373298,"ECCENTRICITY":0.00083972,"INCLINATION":97.5164,"RA_OF_ASC_NODE":137.4699,"ARG_OF_PERICENTER":75.9792,"MEAN_ANOMALY":284.2385,"EPHEMERIS_TYPE":0,"CLASSIFICATION_TYPE":"U","NORAD_CAT_ID":57185,"ELEMENT_SET_NO":999,"REV_AT_EPOCH":14953,"BSTAR":0.0007712531,"MEAN_MOTION_DOT":0.00026506,"MEAN_MOTION_DDOT":0},{"OBJECT_NAME":"STARLINK-32784","OBJECT_ID":"2025-008W","EPOCH":"2026-03-09T22:06:29.211552","MEAN_MOTION":15.31114656,"ECCENTRICITY":0.00057395,"INCLINATION":42.9937,"RA_OF_ASC_NODE":275.4081,"ARG_OF_PERICENTER":294.7007,"MEAN_ANOMALY":65.3248,"EPHEMERIS_TYPE":0,"CLASSIFICATION_TYPE":"U","NORAD_CAT_ID":62607,"ELEMENT_SET_NO":999,"REV_AT_EPOCH":6567,"BSTAR":0.0029487401,"MEAN_MOTION_DOT":0.00091369,"MEAN_MOTION_DDOT":0}]
